start=new Date('2022-04-12T00:00:00.000Z').valueOf();
sats=[{"TLE_LINE1":"1 47805U 21018U   22101.47394074  .00010442  00000-0  71848-3 0  9992","SITE":"AFETR","REF_FRAME":"TEME","CENTER_NAME":"EARTH","GP_ID":"200984817","FILE":"3397378","DECAY_DATE":null,"COUNTRY_CODE":"US","INCLINATION":"53.0538","MEAN_ANOMALY":"310.5915","SEMIMAJOR_AXIS":"6925.283","PERIAPSIS":"545.972","MEAN_MOTION_DDOT":"0.0000000000000","NORAD_CAT_ID":"47805","TIME_SYSTEM":"UTC","ELEMENT_SET_NO":"999","BSTAR":"0.00071848000000","OBJECT_TYPE":"PAYLOAD","EPHEMERIS_TYPE":"0","RA_OF_ASC_NODE":"163.1252","EPOCH":"2022-04-11T11:22:28.479936","OBJECT_ID":"2021-018U","ARG_OF_PERICENTER":"49.5221","PERIOD":"95.591","MEAN_ELEMENT_THEORY":"SGP4","MEAN_MOTION":"15.06421455","APOAPSIS":"548.324","ECCENTRICITY":"0.00016980","TLE_LINE2":"2 47805  53.0538 163.1252 0001698  49.5221 310.5915 15.06421455 61618","LAUNCH_DATE":"2021-03-11","REV_AT_EPOCH":"6161","OBJECT_NAME":"STARLINK-2386","RCS_SIZE":"LARGE","MEAN_MOTION_DOT":"0.00010442","CLASSIFICATION_TYPE":"U"},{"EPOCH":"2022-04-11T16:46:54.490656","MEAN_MOTION":"15.06395928","OBJECT_ID":"2021-018V","ARG_OF_PERICENTER":"44.3031","PERIOD":"95.592","MEAN_ELEMENT_THEORY":"SGP4","TLE_LINE2":"2 47806  53.0539 177.1187 0001838  44.3031 315.8105 15.06395928 61490","APOAPSIS":"548.499","ECCENTRICITY":"0.00018380","LAUNCH_DATE":"2021-03-11","OBJECT_NAME":"STARLINK-2387","RCS_SIZE":"LARGE","REV_AT_EPOCH":"6149","MEAN_MOTION_DOT":"0.00001207","CLASSIFICATION_TYPE":"U","SITE":"AFETR","REF_FRAME":"TEME","TLE_LINE1":"1 47806U 21018V   22101.69924179  .00001207  00000-0  99935-4 0  9999","CENTER_NAME":"EARTH","GP_ID":"201017633","COUNTRY_CODE":"US","MEAN_ANOMALY":"315.8105","INCLINATION":"53.0539","FILE":"3397723","DECAY_DATE":null,"PERIAPSIS":"545.953","SEMIMAJOR_AXIS":"6925.361","NORAD_CAT_ID":"47806","MEAN_MOTION_DDOT":"0.0000000000000","TIME_SYSTEM":"UTC","ELEMENT_SET_NO":"999","OBJECT_TYPE":"PAYLOAD","EPHEMERIS_TYPE":"0","BSTAR":"0.00009993500000","RA_OF_ASC_NODE":"177.1187"},{"OBJECT_NAME":"STARLINK-2388","RCS_SIZE":"LARGE","REV_AT_EPOCH":"6174","LAUNCH_DATE":"2021-03-11","MEAN_MOTION_DOT":"0.00003781","CLASSIFICATION_TYPE":"U","EPOCH":"2022-04-11T11:46:23.807712","TLE_LINE2":"2 47807  53.0548 153.0572 0001910  44.1010 316.0131 15.06402801 61747","APOAPSIS":"548.528","ECCENTRICITY":"0.00019100","MEAN_MOTION":"15.06402801","OBJECT_ID":"2021-018W","ARG_OF_PERICENTER":"44.1010","MEAN_ELEMENT_THEORY":"SGP4","PERIOD":"95.592","OBJECT_TYPE":"PAYLOAD","EPHEMERIS_TYPE":"0","BSTAR":"0.00027257000000","NORAD_CAT_ID":"47807","MEAN_MOTION_DDOT":"0.0000000000000","ELEMENT_SET_NO":"999","TIME_SYSTEM":"UTC","RA_OF_ASC_NODE":"153.0572","CENTER_NAME":"EARTH","GP_ID":"200984315","SITE":"AFETR","REF_FRAME":"TEME","TLE_LINE1":"1 47807U 21018W   22101.49055333  .00003781  00000-0  27257-3 0  9991","PERIAPSIS":"545.882","SEMIMAJOR_AXIS":"6925.340","COUNTRY_CODE":"US","INCLINATION":"53.0548","MEAN_ANOMALY":"316.0131","FILE":"3397378","DECAY_DATE":null},{"LAUNCH_DATE":"2021-03-11","REV_AT_EPOCH":"6146","RCS_SIZE":"LARGE","OBJECT_NAME":"STARLINK-2389","CLASSIFICATION_TYPE":"U","MEAN_MOTION_DOT":"0.00002145","EPOCH":"2022-04-11T12:28:11.956512","MEAN_ELEMENT_THEORY":"SGP4","PERIOD":"95.593","OBJECT_ID":"2021-018X","ARG_OF_PERICENTER":"52.4634","MEAN_MOTION":"15.06394110","ECCENTRICITY":"0.00017630","APOAPSIS":"548.453","TLE_LINE2":"2 47808  53.0524 177.9350 0001763  52.4634 307.6514 15.06394110 61464","TIME_SYSTEM":"UTC","ELEMENT_SET_NO":"999","NORAD_CAT_ID":"47808","MEAN_MOTION_DDOT":"0.0000000000000","BSTAR":"0.00016287000000","EPHEMERIS_TYPE":"0","OBJECT_TYPE":"PAYLOAD","RA_OF_ASC_NODE":"177.9350","TLE_LINE1":"1 47808U 21018X   22101.51958283  .00002145  00000-0  16287-3 0  9995","REF_FRAME":"TEME","SITE":"AFETR","CENTER_NAME":"EARTH","GP_ID":"200984565","DECAY_DATE":null,"FILE":"3397378","INCLINATION":"53.0524","MEAN_ANOMALY":"307.6514","COUNTRY_CODE":"US","PERIAPSIS":"546.011","SEMIMAJOR_AXIS":"6925.367"},{"BSTAR":"0.00034759000000","EPHEMERIS_TYPE":"0","OBJECT_TYPE":"PAYLOAD","TIME_SYSTEM":"UTC","ELEMENT_SET_NO":"999","MEAN_MOTION_DDOT":"0.0000000000000","NORAD_CAT_ID":"47809","RA_OF_ASC_NODE":"182.0039","GP_ID":"201017383","CENTER_NAME":"EARTH","TLE_LINE1":"1 47809U 21018Y   22101.72368123  .00004900  00000-0  34759-3 0  9992","REF_FRAME":"TEME","SITE":"AFETR","SEMIMAJOR_AXIS":"6925.334","PERIAPSIS":"546.088","DECAY_DATE":null,"FILE":"3397723","MEAN_ANOMALY":"308.7520","INCLINATION":"53.0543","COUNTRY_CODE":"US","REV_AT_EPOCH":"6142","RCS_SIZE":"LARGE","OBJECT_NAME":"STARLINK-2390","LAUNCH_DATE":"2021-03-11","CLASSIFICATION_TYPE":"U","MEAN_MOTION_DOT":"0.00004900","EPOCH":"2022-04-11T17:22:06.058272","ECCENTRICITY":"0.00016040","APOAPSIS":"548.310","TLE_LINE2":"2 47809  53.0543 182.0039 0001604  51.3612 308.7520 15.06404796 61422","PERIOD":"95.592","MEAN_ELEMENT_THEORY":"SGP4","OBJECT_ID":"2021-018Y","ARG_OF_PERICENTER":"51.3612","MEAN_MOTION":"15.06404796"},{"MEAN_MOTION_DOT":"0.00000100","CLASSIFICATION_TYPE":"U","OBJECT_NAME":"STARLINK-2391","RCS_SIZE":"LARGE","REV_AT_EPOCH":"6085","LAUNCH_DATE":"2021-03-11","TLE_LINE2":"2 47810  53.0541 192.7984 0001535  54.3238 305.7894 15.06400206 60858","APOAPSIS":"548.276","ECCENTRICITY":"0.00015350","MEAN_MOTION":"15.06400206","OBJECT_ID":"2021-018Z","ARG_OF_PERICENTER":"54.3238","MEAN_ELEMENT_THEORY":"SGP4","PERIOD":"95.592","EPOCH":"2022-04-11T13:11:19.099968","RA_OF_ASC_NODE":"192.7984","OBJECT_TYPE":"PAYLOAD","EPHEMERIS_TYPE":"0","BSTAR":"0.00002562900000","MEAN_MOTION_DDOT":"0.0000000000000","NORAD_CAT_ID":"47810","TIME_SYSTEM":"UTC","ELEMENT_SET_NO":"999","PERIAPSIS":"546.150","SEMIMAJOR_AXIS":"6925.348","COUNTRY_CODE":"US","MEAN_ANOMALY":"305.7894","INCLINATION":"53.0541","FILE":"3397184","DECAY_DATE":null,"CENTER_NAME":"EARTH","GP_ID":"200958806","SITE":"AFETR","REF_FRAME":"TEME","TLE_LINE1":"1 47810U 21018Z   22101.54952662  .00000100  00000-0  25629-4 0  9996"},{"RA_OF_ASC_NODE":"162.6168","EPHEMERIS_TYPE":"0","OBJECT_TYPE":"PAYLOAD","BSTAR":"0.00000891920000","TIME_SYSTEM":"UTC","ELEMENT_SET_NO":"999","MEAN_MOTION_DDOT":"0.0000000000000","NORAD_CAT_ID":"47811","PERIAPSIS":"546.201","SEMIMAJOR_AXIS":"6925.373","MEAN_ANOMALY":"306.2594","INCLINATION":"53.0527","COUNTRY_CODE":"US","DECAY_DATE":null,"FILE":"3397723","CENTER_NAME":"EARTH","GP_ID":"201015882","REF_FRAME":"TEME","SITE":"AFETR","TLE_LINE1":"1 47811U 21018AA  22101.58915732 -.00000149  00000-0  89192-5 0  9998","CLASSIFICATION_TYPE":"U","MEAN_MOTION_DOT":"-0.00000149","RCS_SIZE":"LARGE","OBJECT_NAME":"STARLINK-2392","REV_AT_EPOCH":"6168","LAUNCH_DATE":"2021-03-11","TLE_LINE2":"2 47811  53.0527 162.6168 0001498  53.8533 306.2594 15.06391898 61684","ECCENTRICITY":"0.00014980","APOAPSIS":"548.276","MEAN_MOTION":"15.06391898","PERIOD":"95.593","MEAN_ELEMENT_THEORY":"SGP4","ARG_OF_PERICENTER":"53.8533","OBJECT_ID":"2021-018AA","EPOCH":"2022-04-11T14:08:23.192448"},{"SEMIMAJOR_AXIS":"6925.389","PERIAPSIS":"546.195","INCLINATION":"53.0562","MEAN_ANOMALY":"306.1636","COUNTRY_CODE":"US","DECAY_DATE":null,"FILE":"3397723","CENTER_NAME":"EARTH","GP_ID":"201016132","REF_FRAME":"TEME","SITE":"AFETR","TLE_LINE1":"1 47812U 21018AB  22101.75963391  .00001415  00000-0  11392-3 0  9993","RA_OF_ASC_NODE":"191.8534","EPHEMERIS_TYPE":"0","OBJECT_TYPE":"PAYLOAD","BSTAR":"0.00011392000000","ELEMENT_SET_NO":"999","TIME_SYSTEM":"UTC","NORAD_CAT_ID":"47812","MEAN_MOTION_DDOT":"0.0000000000000","TLE_LINE2":"2 47812  53.0562 191.8534 0001528  53.9495 306.1636 15.06386917 61229","ECCENTRICITY":"0.00015280","APOAPSIS":"548.312","MEAN_MOTION":"15.06386917","PERIOD":"95.593","MEAN_ELEMENT_THEORY":"SGP4","ARG_OF_PERICENTER":"53.9495","OBJECT_ID":"2021-018AB","EPOCH":"2022-04-11T18:13:52.369824","CLASSIFICATION_TYPE":"U","MEAN_MOTION_DOT":"0.00001415","RCS_SIZE":"LARGE","OBJECT_NAME":"STARLINK-2393","REV_AT_EPOCH":"6122","LAUNCH_DATE":"2021-03-11"},{"MEAN_MOTION":"15.06403559","PERIOD":"95.592","MEAN_ELEMENT_THEORY":"SGP4","OBJECT_ID":"2021-018AC","ARG_OF_PERICENTER":"58.0009","TLE_LINE2":"2 47813  53.0538 162.8132 0001686  58.0009 302.1144 15.06403559 61678","ECCENTRICITY":"0.00016860","APOAPSIS":"548.370","EPOCH":"2022-04-11T13:04:41.498400","CLASSIFICATION_TYPE":"U","MEAN_MOTION_DOT":"0.00003969","LAUNCH_DATE":"2021-03-11","RCS_SIZE":"LARGE","OBJECT_NAME":"STARLINK-2394","REV_AT_EPOCH":"6167","MEAN_ANOMALY":"302.1144","INCLINATION":"53.0538","COUNTRY_CODE":"US","DECAY_DATE":null,"FILE":"3397378","SEMIMAJOR_AXIS":"6925.338","PERIAPSIS":"546.035","REF_FRAME":"TEME","SITE":"AFETR","TLE_LINE1":"1 47813U 21018AC  22101.54492475  .00003969  00000-0  28517-3 0  9994","CENTER_NAME":"EARTH","GP_ID":"200984818","RA_OF_ASC_NODE":"162.8132","TIME_SYSTEM":"UTC","ELEMENT_SET_NO":"999","MEAN_MOTION_DDOT":"0.0000000000000","NORAD_CAT_ID":"47813","EPHEMERIS_TYPE":"0","OBJECT_TYPE":"PAYLOAD","BSTAR":"0.00028517000000"},{"PERIAPSIS":"545.893","SEMIMAJOR_AXIS":"6925.324","INCLINATION":"53.0542","MEAN_ANOMALY":"310.4569","COUNTRY_CODE":"US","DECAY_DATE":null,"FILE":"3397723","CENTER_NAME":"EARTH","GP_ID":"201017634","REF_FRAME":"TEME","SITE":"AFETR","TLE_LINE1":"1 47814U 21018AD  22101.70156648  .00002588  00000-0  19253-3 0  9995","RA_OF_ASC_NODE":"182.1154","EPHEMERIS_TYPE":"0","OBJECT_TYPE":"PAYLOAD","BSTAR":"0.00019253000000","TIME_SYSTEM":"UTC","ELEMENT_SET_NO":"999","MEAN_MOTION_DDOT":"0.0000000000000","NORAD_CAT_ID":"47814","TLE_LINE2":"2 47814  53.0542 182.1154 0001872  49.6583 310.4569 15.06407900 61423","ECCENTRICITY":"0.00018720","APOAPSIS":"548.486","MEAN_MOTION":"15.06407900","PERIOD":"95.592","MEAN_ELEMENT_THEORY":"SGP4","OBJECT_ID":"2021-018AD","ARG_OF_PERICENTER":"49.6583","EPOCH":"2022-04-11T16:50:15.343872","CLASSIFICATION_TYPE":"U","MEAN_MOTION_DOT":"0.00002588","RCS_SIZE":"MEDIUM","OBJECT_NAME":"STARLINK-2395","REV_AT_EPOCH":"6142","LAUNCH_DATE":"2021-03-11"}];
